ONEWEB-0707             
1 61612U 24188U   26120.49539479 -.00000166  00000+0 -51302-3 0  9998
2 61612  87.8858  45.7457 0001363  65.9880 294.1390 13.10370022 77071
ONEWEB-0708             
1 61613U 24188V   26120.51364876 -.00000589  00000+0 -17239-2 0  9998
2 61613  87.8852  45.7644 0001544  94.3932 265.7372 13.10374409 77054
